ORBCOMM FM37            
1 33064U 08031E   25220.93658424  .00001359  00000+0  20597-3 0  9993
2 33064  48.4402  92.8347 0005557 242.9957 130.3808 14.79914097921863
ORBCOMM FM40            
1 33065U 08031F   25220.91625691  .00001762  00000+0  24544-3 0  9996
2 33065  48.4424  76.0773 0006702 255.2974 191.7460 14.82212685921980
VESSELSAT 1             
1 37840U 11058C   25220.13528230  .00000337  00000+0  39241-4 0  9997
2 37840  19.9611 139.5457 0013667  38.6285 321.5096 14.11361549713653
ORBCOMM FM109           
1 40086U 14040A   25220.12153563  .00000519  00000+0  14774-3 0  9994
2 40086  47.0030 131.0052 0001910 241.0864 118.9831 14.58236386588640
ORBCOMM FM107           
1 40087U 14040B   25220.14757497  .00000480  00000+0  13912-3 0  9993
2 40087  47.0047 131.8266 0000760 192.2584 167.8283 14.58310527588725
ORBCOMM FM106           
1 40088U 14040C   25220.92483014  .00000810  00000+0  16650-3 0  9990
2 40088  47.0614 306.0325 0017506 309.0542  50.8791 14.69540847591233
ORBCOMM FM111           
1 40089U 14040D   25220.91605324  .00002943  00000+0  35062-3 0  9997
2 40089  47.0007 149.1030 0029548  84.4417 275.9849 14.86530337598078
ORBCOMM FM104           
1 40090U 14040E   25220.87907379  .00000538  00000+0  15685-3 0  9996
2 40090  47.0042 162.6149 0015623  84.1429 276.1236 14.56704382588307
